KUIPER-00074            
1 64821U 25151F   25269.91668981 -.00580342  00000+0 -32900-1 0  9995
2 64821  51.8843 298.4385 0012960  76.3752 152.4135 15.14801423  5701
KUIPER-00075            
1 64822U 25151G   25269.45730944  .00059511  00000+0  15635-2 0  9998
2 64822  51.8776 298.9829 0006866  35.3705 324.7736 15.38016611 11099
KUIPER-00076            
1 64823U 25151H   25269.91668981 -.00524219  00000+0 -33795-1 0  9991
2 64823  51.9002 299.6129 0005911  66.5486  18.8807 15.10074908  5373
KUIPER-00077            
1 64824U 25151J   25269.91668981 -.00860875  00000+0 -87349-1 0  9997
2 64824  51.8955 302.7418 0006947  30.1651 334.7164 14.93428100  5225
KUIPER-00078            
1 64825U 25151K   25269.91668981 -.00935092  00000+0 -76346-1 0  9997
2 64825  51.8885 301.0272 0009450  95.3652  23.0369 15.01997835  5731
KUIPER-00079            
1 64826U 25151L   25269.91668981 -.01482588  00000+0 -18902+0 0  9998
2 64826  51.8989 304.5605 0012979  59.2694 334.3210 14.84386571  5260
KUIPER-00080            
1 64827U 25151M   25269.91668981 -.00027819  00000+0 -34851-2 0  9994
2 64827  51.8983 304.7864 0006146  91.5112 354.7915 14.81674381  1302
KUIPER-00082            
1 64828U 25151N   25269.91668981 -.00602374  00000+0 -27343-1 0  9997
2 64828  51.8850 297.7662 0006900  57.7012 203.1663 15.22610304  4833
KUIPER-00083            
1 64829U 25151P   25269.91668981 -.01832883  00000+0 -15101+0 0  9996
2 64829  51.8885 301.0132 0010394  56.0222 319.9000 15.02268819  5885
KUIPER-00084            
1 64830U 25151Q   25269.51465107  .00004839  00000+0  66410-3 0  9991
2 64830  51.8999 311.4746 0011614  39.9395 320.2420 14.79860769 10923
KUIPER-00085            
1 64831U 25151R   25269.91668981 -.00423994  00000+0 -20026-1 0  9991
2 64831  51.8886 297.8441 0008673  49.1246 124.4312 15.20843536  5442
KUIPER-00086            
1 64832U 25151S   25269.91668981 -.01228362  00000+0 -12583+0 0  9992
2 64832  51.8939 302.7836 0010422  57.1138 148.1097 14.93108913  5771
KUIPER-00087            
1 64833U 25151T   25269.34664532  .00053983  00000+0  14591-2 0  9994
2 64833  51.8782 299.7306 0007940  45.8251 314.3387 15.37174619 11069
KUIPER-00089            
1 64834U 25151U   25269.91668981 -.00828891  00000+0 -30957-1 0  9993
2 64834  51.8818 297.3710 0006240  48.0373  43.1798 15.29425543  5674
KUIPER-00090            
1 64835U 25151V   25268.26452586  .00054406  00000+0  14869-2 0  9999
2 64835  51.8781 305.2207 0008017  56.7029 303.4725 15.36827349 10904
KUIPER-00091            
1 64836U 25151W   25269.91668981 -.00328219  00000+0 -11085-1 0  9995
2 64836  51.8814 297.0250 0009466  52.5638 183.9003 15.31461428  5829
KUIPER-00092            
1 64837U 25151X   25269.91668981 -.00049355  00000+0 -25097-2 0  9996
2 64837  51.8869 298.5572 0010011  43.2440 194.0164 15.16349400  5941
KUIPER-00093            
1 64838U 25151Y   25269.91668981  .00053891  00000+0  34004-2 0  9993
2 64838  51.8900 299.7430 0014014  61.8340 236.7971 15.08499511  4697
KUIPER-00094            
1 64839U 25151Z   25269.91668981 -.00109236  00000+0 -42328-2 0  9999
2 64839  51.8821 297.3657 0008867  60.5450 356.7574 15.25997365  4985
KUIPER-00081            
1 65132U 25171A   25268.93028768  .00117220  00000+0  31357-2 0  9992
2 65132  51.8747 185.5339 0005732 222.9033 137.1507 15.37131996  8235
KUIPER-00088            
1 65133U 25171B   25269.18998404  .00073803  00000+0  19976-2 0  9995
2 65133  51.8747 184.2780 0004767 285.6083  74.4378 15.37009688  8275
KUIPER-00095            
1 65134U 25171C   25269.92486851  .00054811  00000+0  15237-2 0  9990
2 65134  51.8745 180.9419 0003856 323.3498  36.7224 15.36317069  8381
KUIPER-00096            
1 65135U 25171D   25269.46134804  .00067209  00000+0  18420-2 0  9990
2 65135  51.8748 183.0854 0003454 299.5852  60.4790 15.36669087  8319
KUIPER-00097            
1 65136U 25171E   25269.92623296  .00039212  00000+0  10943-2 0  9995
2 65136  51.8749 180.9503 0004197 319.8037  40.2638 15.36347435  8377
KUIPER-00098            
1 65137U 25171F   25268.93176352  .00083563  00000+0  22706-2 0  9990
2 65137  51.8756 185.5442 0004746 273.2531  86.7913 15.36830575  7575
KUIPER-00099            
1 65138U 25171G   25269.06439177  .00091973  00000+0  24968-2 0  9999
2 65138  51.8754 184.9347 0004340 288.0471  72.0042 15.36812845  8244
KUIPER-00100            
1 65139U 25171H   25269.46089106  .00065711  00000+0  18028-2 0  9998
2 65139  51.8747 183.0822 0003977 300.4851  59.5742 15.36645817  8308
KUIPER-00102            
1 65140U 25171J   25269.92583417  .00085934  00000+0  23761-2 0  9994
2 65140  51.8747 180.9450 0003506 317.0876  42.9837 15.36279204  8373
KUIPER-00103            
1 65141U 25171K   25269.91668981 -.00579505  00000+0 -23834-1 0  9998
2 65141  51.8799 181.2682 0004776 294.9115 243.9487 15.25828946  5722
KUIPER-00104            
1 65142U 25171L   25269.46274171  .00047501  00000+0  13154-2 0  9992
2 65142  51.8761 183.1052 0003256 303.5257  56.5418 15.36501994  8302
KUIPER-00105            
1 65143U 25171M   25269.91668981  .00021631  00000+0  65200-3 0  9995
2 65143  51.8759 180.7307 0005028 282.4763 151.3109 15.34241863  5393
KUIPER-00106            
1 65144U 25171N   25269.91668981  .00005585  00000+0  24524-3 0  9990
2 65144  51.8797 181.3909 0005413 283.9793 159.3314 15.23398401  4752
KUIPER-00107            
1 65145U 25171P   25269.45922433  .00053924  00000+0  14845-2 0  9999
2 65145  51.8751 183.0814 0003974 305.1976  54.8638 15.36627169  8311
KUIPER-00108            
1 65146U 25171Q   25269.92717627  .00070041  00000+0  19418-2 0  9999
2 65146  51.8768 180.9659 0004074 318.3459  41.7216 15.36290496  8380
KUIPER-00109            
1 65147U 25171R   25269.19362237  .00087050  00000+0  23578-2 0  9992
2 65147  51.8751 184.2966 0004581 295.7597  64.2916 15.36909492  8262
KUIPER-00110            
1 65148U 25171S   25269.91668981 -.00384653  00000+0 -14039-1 0  9990
2 65148  51.8778 181.0023 0005516 306.9676 344.5556 15.29252713  5780
KUIPER-00111            
1 65149U 25171T   25269.91668981 -.01493699  00000+0 -73742-1 0  9999
2 65149  51.8806 181.9471 0005507 309.7076 264.6462 15.20479825  5092
KUIPER-00112            
1 65150U 25171U   25269.92764571  .00048414  00000+0  13507-2 0  9996
2 65150  51.8762 180.9661 0004478 329.7673  30.3054 15.36259349  8379
KUIPER-00114            
1 65151U 25171V   25269.91668981 -.00871269  00000+0 -53008-1 0  9997
2 65151  51.8856 182.9385 0003674 295.9470  82.4574 15.12613826  5353
KUIPER-00115            
1 65152U 25171W   25269.91668981 -.00317976  00000+0 -10707-1 0  9997
2 65152  51.8754 180.9368 0006135 283.5723  56.2351 15.31547450  4552
KUIPER-00116            
1 65153U 25171X   25269.91668981 -.01435634  00000+0 -73482-1 0  9990
2 65153  51.8871 182.0806 0003946 289.3657 169.7909 15.19140505  5602
KUIPER-00118            
1 65154U 25171Y   25269.91668981 -.01721131  00000+0 -10004+0 0  9990
2 65154  51.8793 182.8005 0003542 279.0625 239.0356 15.14789668  5687
KUIPER-00119            
1 65155U 25171Z   25269.19018162  .00068486  00000+0  18577-2 0  9991
2 65155  51.8746 184.2751 0005028 291.2878  68.7572 15.36975478  8261
